OBJECT C                
1 57582U 23117C   25270.30707984  .00026218  00000+0  96220-3 0  9995
2 57582  97.4356 344.8789 0009771  96.2570 263.9783 15.27887148118255
